SITRO-AIS 51            
1 59062U 24039M   24144.89416496  .00029931  00000+0  11180-2 0  9998
2 59062  97.3911 107.1721 0014745 308.8188  51.1734 15.27220146 12891
SITRO-AIS 52            
1 59063U 24039N   24144.88971199  .00028121  00000+0  10483-2 0  9999
2 59063  97.3911 107.1782 0014548 308.7453  51.2485 15.27301128 12898
SITRO-AIS 25            
1 59066U 24039R   24144.84667369  .00010180  00000+0  97203-3 0  9991
2 59066  95.4035  80.8795 0175046  67.0827 294.8761 14.82452724 12508
SITRO-AIS 26            
1 59067U 24039S   24144.84597327  .00010400  00000+0  99353-3 0  9991
2 59067  95.4035  80.8796 0174916  67.1126 294.8453 14.82445466 12501
SITRO-AIS 27            
1 59068U 24039T   24144.83928120  .00011201  00000+0  10668-2 0  9991
2 59068  95.4037  80.8881 0174603  67.0066 294.9465 14.82587002 12501
SITRO-AIS 28            
1 59071U 24039U   24144.83735342  .00011497  00000+0  10943-2 0  9990
2 59071  95.4038  80.8907 0174465  66.9958 294.9557 14.82621101 12500
